CCSDS_OMM_VERS = 2.0
CREATION_DATE  = 
ORIGINATOR     = 

OBJECT_NAME    = SL-4 R/B
OBJECT_ID      = 2014-021B
CENTER_NAME    = EARTH
REF_FRAME      = TEME
TIME_SYSTEM    = UTC
MEAN_ELEMENT_THEORY = SGP/SGP4

EPOCH          = 2025-12-29T06:17:19.912128
MEAN_MOTION    = 15.37072025
ECCENTRICITY   = .0100404
INCLINATION    = 51.6086
RA_OF_ASC_NODE = 320.2752
ARG_OF_PERICENTER = 205.8840
MEAN_ANOMALY   = 153.7101

EPHEMERIS_TYPE = 0
CLASSIFICATION_TYPE = U
NORAD_CAT_ID   = 39679
ELEMENT_SET_NO = 999
REV_AT_EPOCH   = 64543
BSTAR          = .35613E-3
MEAN_MOTION_DOT = .15156E-3
MEAN_MOTION_DDOT = 0

CCSDS_OMM_VERS = 2.0
CREATION_DATE  = 
ORIGINATOR     = 

OBJECT_NAME    = ALOS-2
OBJECT_ID      = 2014-029A
CENTER_NAME    = EARTH
REF_FRAME      = TEME
TIME_SYSTEM    = UTC
MEAN_ELEMENT_THEORY = SGP/SGP4

EPOCH          = 2025-12-29T20:29:58.845120
MEAN_MOTION    = 14.79484475
ECCENTRICITY   = .0001329
INCLINATION    = 97.9214
RA_OF_ASC_NODE = 98.4560
ARG_OF_PERICENTER = 94.5872
MEAN_ANOMALY   = 265.5491

EPHEMERIS_TYPE = 0
CLASSIFICATION_TYPE = U
NORAD_CAT_ID   = 39766
ELEMENT_SET_NO = 999
REV_AT_EPOCH   = 62654
BSTAR          = .45554E-3
MEAN_MOTION_DOT = .3353E-4
MEAN_MOTION_DDOT = 0

CCSDS_OMM_VERS = 2.0
CREATION_DATE  = 
ORIGINATOR     = 

OBJECT_NAME    = YAOGAN-29
OBJECT_ID      = 2015-069A
CENTER_NAME    = EARTH
REF_FRAME      = TEME
TIME_SYSTEM    = UTC
MEAN_ELEMENT_THEORY = SGP/SGP4

EPOCH          = 2025-12-29T21:23:25.020384
MEAN_MOTION    = 14.82901553
ECCENTRICITY   = .0001268
INCLINATION    = 98.0213
RA_OF_ASC_NODE = 27.1168
ARG_OF_PERICENTER = 156.4699
MEAN_ANOMALY   = 203.6573

EPHEMERIS_TYPE = 0
CLASSIFICATION_TYPE = U
NORAD_CAT_ID   = 41038
ELEMENT_SET_NO = 999
REV_AT_EPOCH   = 54553
BSTAR          = .92528E-4
MEAN_MOTION_DOT = .696E-5
MEAN_MOTION_DDOT = 0

CCSDS_OMM_VERS = 2.0
CREATION_DATE  = 
ORIGINATOR     = 

OBJECT_NAME    = ASTRO-H (HITOMI)
OBJECT_ID      = 2016-012A
CENTER_NAME    = EARTH
REF_FRAME      = TEME
TIME_SYSTEM    = UTC
MEAN_ELEMENT_THEORY = SGP/SGP4

EPOCH          = 2025-12-28T22:59:21.708960
MEAN_MOTION    = 15.09466005
ECCENTRICITY   = .0009652
INCLINATION    = 30.9996
RA_OF_ASC_NODE = 92.8074
ARG_OF_PERICENTER = 341.3453
MEAN_ANOMALY   = 18.6831

EPHEMERIS_TYPE = 0
CLASSIFICATION_TYPE = U
NORAD_CAT_ID   = 41337
ELEMENT_SET_NO = 999
REV_AT_EPOCH   = 54153
BSTAR          = .32727471E-3
MEAN_MOTION_DOT = .5469E-4
MEAN_MOTION_DDOT = 0

CCSDS_OMM_VERS = 2.0
CREATION_DATE  = 
ORIGINATOR     = 

OBJECT_NAME    = HXMT (HUIYAN)
OBJECT_ID      = 2017-034A
CENTER_NAME    = EARTH
REF_FRAME      = TEME
TIME_SYSTEM    = UTC
MEAN_ELEMENT_THEORY = SGP/SGP4

EPOCH          = 2025-12-29T20:26:21.478272
MEAN_MOTION    = 15.16459023
ECCENTRICITY   = .0031759
INCLINATION    = 43.0151
RA_OF_ASC_NODE = 44.6573
ARG_OF_PERICENTER = 155.3212
MEAN_ANOMALY   = 204.9163

EPHEMERIS_TYPE = 0
CLASSIFICATION_TYPE = U
NORAD_CAT_ID   = 42758
ELEMENT_SET_NO = 999
REV_AT_EPOCH   = 47193
BSTAR          = .52452E-3
MEAN_MOTION_DOT = .103E-3
MEAN_MOTION_DDOT = 0

CCSDS_OMM_VERS = 2.0
CREATION_DATE  = 
ORIGINATOR     = 

OBJECT_NAME    = CZ-2C R/B
OBJECT_ID      = 2018-054D
CENTER_NAME    = EARTH
REF_FRAME      = TEME
TIME_SYSTEM    = UTC
MEAN_ELEMENT_THEORY = SGP/SGP4

EPOCH          = 2025-12-29T12:31:38.016192
MEAN_MOTION    = 15.77921630
ECCENTRICITY   = .00136402
INCLINATION    = 35.1326
RA_OF_ASC_NODE = 66.7871
ARG_OF_PERICENTER = 310.2300
MEAN_ANOMALY   = 49.7241

EPHEMERIS_TYPE = 0
CLASSIFICATION_TYPE = U
NORAD_CAT_ID   = 43521
ELEMENT_SET_NO = 999
REV_AT_EPOCH   = 41770
BSTAR          = .95067508E-3
MEAN_MOTION_DOT = .171438E-2
MEAN_MOTION_DDOT = 0

CCSDS_OMM_VERS = 2.0
CREATION_DATE  = 
ORIGINATOR     = 

OBJECT_NAME    = SAOCOM 1A
OBJECT_ID      = 2018-076A
CENTER_NAME    = EARTH
REF_FRAME      = TEME
TIME_SYSTEM    = UTC
MEAN_ELEMENT_THEORY = SGP/SGP4

EPOCH          = 2025-12-29T19:40:14.036160
MEAN_MOTION    = 14.82153899
ECCENTRICITY   = .0001399
INCLINATION    = 97.8850
RA_OF_ASC_NODE = 187.9927
ARG_OF_PERICENTER = 83.7105
MEAN_ANOMALY   = 276.4268

EPHEMERIS_TYPE = 0
CLASSIFICATION_TYPE = U
NORAD_CAT_ID   = 43641
ELEMENT_SET_NO = 999
REV_AT_EPOCH   = 39101
BSTAR          = .87044E-4
MEAN_MOTION_DOT = .641E-5
MEAN_MOTION_DDOT = 0

CCSDS_OMM_VERS = 2.0
CREATION_DATE  = 
ORIGINATOR     = 

OBJECT_NAME    = H-2A R/B
OBJECT_ID      = 2018-084L
CENTER_NAME    = EARTH
REF_FRAME      = TEME
TIME_SYSTEM    = UTC
MEAN_ELEMENT_THEORY = SGP/SGP4

EPOCH          = 2025-12-29T19:21:48.888576
MEAN_MOTION    = 15.38053309
ECCENTRICITY   = .0026244
INCLINATION    = 98.8766
RA_OF_ASC_NODE = 201.4315
ARG_OF_PERICENTER = 266.4617
MEAN_ANOMALY   = 93.3622

EPHEMERIS_TYPE = 0
CLASSIFICATION_TYPE = U
NORAD_CAT_ID   = 43682
ELEMENT_SET_NO = 999
REV_AT_EPOCH   = 39502
BSTAR          = .7533E-3
MEAN_MOTION_DOT = .28505E-3
MEAN_MOTION_DDOT = 0

CCSDS_OMM_VERS = 2.0
CREATION_DATE  = 
ORIGINATOR     = 

OBJECT_NAME    = SAOCOM 1B
OBJECT_ID      = 2020-059A
CENTER_NAME    = EARTH
REF_FRAME      = TEME
TIME_SYSTEM    = UTC
MEAN_ELEMENT_THEORY = SGP/SGP4

EPOCH          = 2025-12-29T20:25:13.723392
MEAN_MOTION    = 14.82156767
ECCENTRICITY   = .0001413
INCLINATION    = 97.8846
RA_OF_ASC_NODE = 187.1233
ARG_OF_PERICENTER = 83.1462
MEAN_ANOMALY   = 276.9912

EPHEMERIS_TYPE = 0
CLASSIFICATION_TYPE = U
NORAD_CAT_ID   = 46265
ELEMENT_SET_NO = 999
REV_AT_EPOCH   = 28840
BSTAR          = .7241E-4
MEAN_MOTION_DOT = .524E-5
MEAN_MOTION_DDOT = 0

CCSDS_OMM_VERS = 2.0
CREATION_DATE  = 
ORIGINATOR     = 

OBJECT_NAME    = CSS (TIANHE)
OBJECT_ID      = 2021-035A
CENTER_NAME    = EARTH
REF_FRAME      = TEME
TIME_SYSTEM    = UTC
MEAN_ELEMENT_THEORY = SGP/SGP4

EPOCH          = 2025-12-29T17:58:30.499104
MEAN_MOTION    = 15.59870629
ECCENTRICITY   = .000944
INCLINATION    = 41.4672
RA_OF_ASC_NODE = 273.3914
ARG_OF_PERICENTER = 177.4495
MEAN_ANOMALY   = 182.6393

EPHEMERIS_TYPE = 0
CLASSIFICATION_TYPE = U
NORAD_CAT_ID   = 48274
ELEMENT_SET_NO = 999
REV_AT_EPOCH   = 26668
BSTAR          = .30771E-3
MEAN_MOTION_DOT = .25259E-3
MEAN_MOTION_DDOT = 0

CCSDS_OMM_VERS = 2.0
CREATION_DATE  = 
ORIGINATOR     = 

OBJECT_NAME    = COSMOS 2550
OBJECT_ID      = 2021-056A
CENTER_NAME    = EARTH
REF_FRAME      = TEME
TIME_SYSTEM    = UTC
MEAN_ELEMENT_THEORY = SGP/SGP4

EPOCH          = 2025-12-28T01:11:45.246336
MEAN_MOTION    = 15.33830504
ECCENTRICITY   = .00083728
INCLINATION    = 67.1448
RA_OF_ASC_NODE = 257.6258
ARG_OF_PERICENTER = 269.7459
MEAN_ANOMALY   = 90.2736

EPHEMERIS_TYPE = 0
CLASSIFICATION_TYPE = U
NORAD_CAT_ID   = 48865
ELEMENT_SET_NO = 999
REV_AT_EPOCH   = 25247
BSTAR          = .1296151E-5
MEAN_MOTION_DOT = -.149E-5
MEAN_MOTION_DDOT = 0

CCSDS_OMM_VERS = 2.0
CREATION_DATE  = 
ORIGINATOR     = 

OBJECT_NAME    = CZ-2C R/B
OBJECT_ID      = 2022-058K
CENTER_NAME    = EARTH
REF_FRAME      = TEME
TIME_SYSTEM    = UTC
MEAN_ELEMENT_THEORY = SGP/SGP4

EPOCH          = 2025-12-29T06:11:27.979008
MEAN_MOTION    = 15.49412491
ECCENTRICITY   = .004423
INCLINATION    = 50.1916
RA_OF_ASC_NODE = 319.2590
ARG_OF_PERICENTER = 266.4023
MEAN_ANOMALY   = 93.1886

EPHEMERIS_TYPE = 0
CLASSIFICATION_TYPE = U
NORAD_CAT_ID   = 52794
ELEMENT_SET_NO = 999
REV_AT_EPOCH   = 19919
BSTAR          = .7392E-3
MEAN_MOTION_DOT = .42801E-3
MEAN_MOTION_DDOT = 0

