SL-4 R/B                
1 39679U 14021B   25363.26203602  .00015156  00000+0  35613-3 0  9990
2 39679  51.6086 320.2752 0100404 205.8840 153.7101 15.37072025645431
ALOS-2                  
1 39766U 14029A   25363.85415330  .00003353  00000+0  45554-3 0  9994
2 39766  97.9214  98.4560 0001329  94.5872 265.5491 14.79484475626545
YAOGAN-29               
1 41038U 15069A   25363.89126181  .00000696  00000+0  92528-4 0  9992
2 41038  98.0213  27.1168 0001268 156.4699 203.6573 14.82901553545539
ASTRO-H (HITOMI)        
1 41337U 16012A   25362.95789015  .00005469  00000+0  32727-3 0  9997
2 41337  30.9996  92.8074 0009652 341.3453  18.6831 15.09466005541532
HXMT (HUIYAN)           
1 42758U 17034A   25363.85163748  .00010300  00000+0  52452-3 0  9996
2 42758  43.0151  44.6573 0031759 155.3212 204.9163 15.16459023471930
CZ-2C R/B               
1 43521U 18054D   25363.52196778  .00171438  00000+0  95068-3 0  9991
2 43521  35.1326  66.7871 0013640 310.2300  49.7241 15.77921630417702
SAOCOM 1A               
1 43641U 18076A   25363.81960690  .00000641  00000+0  87044-4 0  9995
2 43641  97.8850 187.9927 0001399  83.7105 276.4268 14.82153899391015
H-2A R/B                
1 43682U 18084L   25363.80681584  .00028505  00000+0  75330-3 0  9993
2 43682  98.8766 201.4315 0026244 266.4617  93.3622 15.38053309395026
SAOCOM 1B               
1 46265U 20059A   25363.85085328  .00000524  00000+0  72410-4 0  9995
2 46265  97.8846 187.1233 0001413  83.1462 276.9912 14.82156767288400
CSS (TIANHE)            
1 48274U 21035A   25363.74896411  .00025259  00000+0  30771-3 0  9998
2 48274  41.4672 273.3914 0009440 177.4495 182.6393 15.59870629266686
COSMOS 2550             
1 48865U 21056A   25362.04982924 -.00000149  00000+0  12962-5 0  9990
2 48865  67.1448 257.6258 0008372 269.7459  90.2736 15.33830504252479
CZ-2C R/B               
1 52794U 22058K   25363.25796272  .00042801  00000+0  73920-3 0  9991
2 52794  50.1916 319.2590 0044230 266.4023  93.1886 15.49412491199190
